start=new Date('2022-03-06T00:00:00.000Z').valueOf();
sats=[{"TLE_LINE1":"1 45093U 20006BB  22064.91450701 -.00001754  00000-0 -98867-4 0  9991","ELEMENT_SET_NO":"999","PERIOD":"95.592","OBJECT_TYPE":"PAYLOAD","SEMIMAJOR_AXIS":"6925.360","SITE":"AFETR","TIME_SYSTEM":"UTC","CENTER_NAME":"EARTH","REV_AT_EPOCH":"11624","BSTAR":"-0.00009886700000","MEAN_ELEMENT_THEORY":"SGP4","OBJECT_ID":"2020-006BB","ECCENTRICITY":"0.00018750","INCLINATION":"53.0562","MEAN_ANOMALY":"284.3910","TLE_LINE2":"2 45093  53.0562 342.2527 0001875  75.7287 284.3910 15.06396293116241","EPHEMERIS_TYPE":"0","RA_OF_ASC_NODE":"342.2527","EPOCH":"2022-03-05T21:56:53.405664","MEAN_MOTION_DDOT":"0.0000000000000","NORAD_CAT_ID":"45093","LAUNCH_DATE":"2020-01-29","FILE":"3346512","REF_FRAME":"TEME","OBJECT_NAME":"STARLINK-1142","RCS_SIZE":"LARGE","MEAN_MOTION_DOT":"-0.00001754","PERIAPSIS":"545.926","ARG_OF_PERICENTER":"75.7287","MEAN_MOTION":"15.06396293","DECAY_DATE":null,"GP_ID":"198016854","APOAPSIS":"548.523","COUNTRY_CODE":"US","CLASSIFICATION_TYPE":"U"},{"DECAY_DATE":null,"MEAN_MOTION":"15.06408532","ARG_OF_PERICENTER":"69.4187","CLASSIFICATION_TYPE":"U","APOAPSIS":"548.237","GP_ID":"198015103","COUNTRY_CODE":"US","MEAN_MOTION_DOT":"-0.00001582","RCS_SIZE":"LARGE","OBJECT_NAME":"STARLINK-1146","PERIAPSIS":"546.138","MEAN_MOTION_DDOT":"0.0000000000000","FILE":"3346512","REF_FRAME":"TEME","NORAD_CAT_ID":"45094","LAUNCH_DATE":"2020-01-29","INCLINATION":"53.0558","MEAN_ANOMALY":"290.6964","EPOCH":"2022-03-05T22:18:07.220736","TLE_LINE2":"2 45094  53.0558 342.1875 0001515  69.4187 290.6964 15.06408532116252","EPHEMERIS_TYPE":"0","RA_OF_ASC_NODE":"342.1875","OBJECT_ID":"2020-006BC","ECCENTRICITY":"0.00015150","MEAN_ELEMENT_THEORY":"SGP4","BSTAR":"-0.00008733400000","REV_AT_EPOCH":"11625","TIME_SYSTEM":"UTC","CENTER_NAME":"EARTH","OBJECT_TYPE":"PAYLOAD","PERIOD":"95.592","SEMIMAJOR_AXIS":"6925.322","SITE":"AFETR","TLE_LINE1":"1 45094U 20006BC  22064.92925024 -.00001582  00000-0 -87334-4 0  9994","ELEMENT_SET_NO":"999"},{"TIME_SYSTEM":"UTC","CENTER_NAME":"EARTH","BSTAR":"0.00026345000000","REV_AT_EPOCH":"11625","MEAN_ELEMENT_THEORY":"SGP4","OBJECT_ID":"2020-006BD","ECCENTRICITY":"0.00017350","ELEMENT_SET_NO":"999","TLE_LINE1":"1 45095U 20006BD  22064.93292858  .00003645  00000-0  26345-3 0  9992","SEMIMAJOR_AXIS":"6925.325","SITE":"AFETR","PERIOD":"95.592","OBJECT_TYPE":"PAYLOAD","PERIAPSIS":"545.989","MEAN_MOTION_DOT":"0.00003645","RCS_SIZE":"LARGE","OBJECT_NAME":"STARLINK-1147","GP_ID":"198015353","APOAPSIS":"548.392","COUNTRY_CODE":"US","CLASSIFICATION_TYPE":"U","MEAN_MOTION":"15.06407544","ARG_OF_PERICENTER":"58.9564","DECAY_DATE":null,"TLE_LINE2":"2 45095  53.0542 342.1807 0001735  58.9564 301.1595 15.06407544116257","RA_OF_ASC_NODE":"342.1807","EPHEMERIS_TYPE":"0","EPOCH":"2022-03-05T22:23:25.029312","INCLINATION":"53.0542","MEAN_ANOMALY":"301.1595","LAUNCH_DATE":"2020-01-29","NORAD_CAT_ID":"45095","REF_FRAME":"TEME","FILE":"3346512","MEAN_MOTION_DDOT":"0.0000000000000"},{"MEAN_MOTION_DDOT":"0.0000000000000","REF_FRAME":"TEME","FILE":"3346512","NORAD_CAT_ID":"45096","LAUNCH_DATE":"2020-01-29","MEAN_ANOMALY":"299.0883","INCLINATION":"53.0545","EPOCH":"2022-03-05T22:12:47.739456","TLE_LINE2":"2 45096  53.0545 342.2145 0001702  61.0276 299.0883 15.06411320116247","EPHEMERIS_TYPE":"0","RA_OF_ASC_NODE":"342.2145","DECAY_DATE":null,"MEAN_MOTION":"15.06411320","ARG_OF_PERICENTER":"61.0276","CLASSIFICATION_TYPE":"U","GP_ID":"198016104","APOAPSIS":"548.358","COUNTRY_CODE":"US","RCS_SIZE":"LARGE","OBJECT_NAME":"STARLINK-1152","MEAN_MOTION_DOT":"0.00003111","PERIAPSIS":"546.000","OBJECT_TYPE":"PAYLOAD","PERIOD":"95.591","SEMIMAJOR_AXIS":"6925.314","SITE":"AFETR","TLE_LINE1":"1 45096U 20006BE  22064.92555254  .00003111  00000-0  22756-3 0  9994","ELEMENT_SET_NO":"999","ECCENTRICITY":"0.00017020","OBJECT_ID":"2020-006BE","REV_AT_EPOCH":"11624","BSTAR":"0.00022756000000","MEAN_ELEMENT_THEORY":"SGP4","TIME_SYSTEM":"UTC","CENTER_NAME":"EARTH"},{"REV_AT_EPOCH":"11624","BSTAR":"0.00060780000000","MEAN_ELEMENT_THEORY":"SGP4","CENTER_NAME":"EARTH","TIME_SYSTEM":"UTC","OBJECT_ID":"2020-006BG","ECCENTRICITY":"0.00016950","TLE_LINE1":"1 45098U 20006BG  22064.90712952  .00008785  00000-0  60780-3 0  9995","ELEMENT_SET_NO":"999","OBJECT_TYPE":"PAYLOAD","PERIOD":"95.592","SITE":"AFETR","SEMIMAJOR_AXIS":"6925.321","RCS_SIZE":"LARGE","MEAN_MOTION_DOT":"0.00008785","OBJECT_NAME":"STARLINK-1184","PERIAPSIS":"546.012","DECAY_DATE":null,"ARG_OF_PERICENTER":"78.1067","MEAN_MOTION":"15.06409015","CLASSIFICATION_TYPE":"U","APOAPSIS":"548.360","GP_ID":"198016355","COUNTRY_CODE":"US","INCLINATION":"53.0535","MEAN_ANOMALY":"282.0112","EPOCH":"2022-03-05T21:46:15.990528","RA_OF_ASC_NODE":"342.2957","TLE_LINE2":"2 45098  53.0535 342.2957 0001695  78.1067 282.0112 15.06409015116242","EPHEMERIS_TYPE":"0","MEAN_MOTION_DDOT":"0.0000000000000","FILE":"3346512","REF_FRAME":"TEME","NORAD_CAT_ID":"45098","LAUNCH_DATE":"2020-01-29"},{"CENTER_NAME":"EARTH","TIME_SYSTEM":"UTC","REV_AT_EPOCH":"11625","BSTAR":"0.00041160000000","MEAN_ELEMENT_THEORY":"SGP4","OBJECT_ID":"2020-006BH","ECCENTRICITY":"0.00018220","TLE_LINE1":"1 45099U 20006BH  22064.94030915  .00005856  00000-0  41160-3 0  9999","ELEMENT_SET_NO":"999","PERIOD":"95.592","OBJECT_TYPE":"PAYLOAD","SITE":"AFETR","SEMIMAJOR_AXIS":"6925.326","OBJECT_NAME":"STARLINK-1186","RCS_SIZE":"LARGE","MEAN_MOTION_DOT":"0.00005856","PERIAPSIS":"545.929","MEAN_MOTION":"15.06407284","ARG_OF_PERICENTER":"60.1813","DECAY_DATE":null,"GP_ID":"198015603","COUNTRY_CODE":"US","APOAPSIS":"548.453","CLASSIFICATION_TYPE":"U","MEAN_ANOMALY":"299.9356","INCLINATION":"53.0569","TLE_LINE2":"2 45099  53.0569 342.1388 0001822  60.1813 299.9356 15.06407284116253","RA_OF_ASC_NODE":"342.1388","EPHEMERIS_TYPE":"0","EPOCH":"2022-03-05T22:34:02.710560","MEAN_MOTION_DDOT":"0.0000000000000","NORAD_CAT_ID":"45099","LAUNCH_DATE":"2020-01-29","REF_FRAME":"TEME","FILE":"3346512"},{"RA_OF_ASC_NODE":"342.2921","TLE_LINE2":"2 45100  53.0560 342.2921 0001734  61.0145 299.1018 15.06430941116243","EPHEMERIS_TYPE":"0","EPOCH":"2022-03-05T21:40:57.314496","MEAN_ANOMALY":"299.1018","INCLINATION":"53.0560","LAUNCH_DATE":"2020-01-29","NORAD_CAT_ID":"45100","FILE":"3346512","REF_FRAME":"TEME","MEAN_MOTION_DDOT":"0.0000000000000","PERIAPSIS":"545.918","OBJECT_NAME":"STARLINK-1193","RCS_SIZE":"LARGE","MEAN_MOTION_DOT":"0.00015401","GP_ID":"198015853","APOAPSIS":"548.320","COUNTRY_CODE":"US","CLASSIFICATION_TYPE":"U","ARG_OF_PERICENTER":"61.0145","MEAN_MOTION":"15.06430941","DECAY_DATE":null,"ELEMENT_SET_NO":"999","TLE_LINE1":"1 45100U 20006BJ  22064.90344114  .00015401  00000-0  10497-2 0  9992","SEMIMAJOR_AXIS":"6925.254","SITE":"AFETR","PERIOD":"95.590","OBJECT_TYPE":"PAYLOAD","TIME_SYSTEM":"UTC","CENTER_NAME":"EARTH","BSTAR":"0.00104970000000","REV_AT_EPOCH":"11624","MEAN_ELEMENT_THEORY":"SGP4","ECCENTRICITY":"0.00017340","OBJECT_ID":"2020-006BJ"},{"REV_AT_EPOCH":"11622","BSTAR":"0.00021387000000","MEAN_ELEMENT_THEORY":"SGP4","TIME_SYSTEM":"UTC","CENTER_NAME":"EARTH","ECCENTRICITY":"0.00015960","OBJECT_ID":"2020-006BK","ELEMENT_SET_NO":"999","TLE_LINE1":"1 45101U 20006BK  22064.76705979  .00002907  00000-0  21387-3 0  9995","SEMIMAJOR_AXIS":"6925.304","SITE":"AFETR","OBJECT_TYPE":"PAYLOAD","PERIOD":"95.591","PERIAPSIS":"546.064","OBJECT_NAME":"STARLINK-1194","RCS_SIZE":"LARGE","MEAN_MOTION_DOT":"0.00002907","CLASSIFICATION_TYPE":"U","APOAPSIS":"548.274","GP_ID":"198016604","COUNTRY_CODE":"US","DECAY_DATE":null,"MEAN_MOTION":"15.06414525","ARG_OF_PERICENTER":"63.3213","EPOCH":"2022-03-05T18:24:33.965856","RA_OF_ASC_NODE":"342.8989","TLE_LINE2":"2 45101  53.0560 342.8989 0001596  63.3213 296.7939 15.06414525116224","EPHEMERIS_TYPE":"0","INCLINATION":"53.0560","MEAN_ANOMALY":"296.7939","REF_FRAME":"TEME","FILE":"3346512","NORAD_CAT_ID":"45101","LAUNCH_DATE":"2020-01-29","MEAN_MOTION_DDOT":"0.0000000000000"},{"OBJECT_TYPE":"PAYLOAD","PERIOD":"95.587","SITE":"AFETR","SEMIMAJOR_AXIS":"6925.119","TLE_LINE1":"1 45102U 20006BL  22064.92183925 -.00012659  00000-0 -83074-3 0  9993","ELEMENT_SET_NO":"999","OBJECT_ID":"2020-006BL","ECCENTRICITY":"0.00020460","MEAN_ELEMENT_THEORY":"SGP4","BSTAR":"-0.00083074000000","REV_AT_EPOCH":"11624","CENTER_NAME":"EARTH","TIME_SYSTEM":"UTC","MEAN_MOTION_DDOT":"0.0000000000000","FILE":"3346512","REF_FRAME":"TEME","LAUNCH_DATE":"2020-01-29","NORAD_CAT_ID":"45102","INCLINATION":"53.0549","MEAN_ANOMALY":"306.6420","EPOCH":"2022-03-05T22:07:26.911200","EPHEMERIS_TYPE":"0","TLE_LINE2":"2 45102  53.0549 342.2307 0002046  53.4757 306.6420 15.06474930116248","RA_OF_ASC_NODE":"342.2307","DECAY_DATE":null,"ARG_OF_PERICENTER":"53.4757","MEAN_MOTION":"15.06474930","CLASSIFICATION_TYPE":"U","APOAPSIS":"548.401","GP_ID":"198016855","COUNTRY_CODE":"US","RCS_SIZE":"LARGE","OBJECT_NAME":"STARLINK-1195","MEAN_MOTION_DOT":"-0.00012659","PERIAPSIS":"545.567"},{"PERIAPSIS":"546.103","RCS_SIZE":"LARGE","OBJECT_NAME":"STARLINK-1196","MEAN_MOTION_DOT":"0.00005822","CLASSIFICATION_TYPE":"U","APOAPSIS":"548.237","GP_ID":"198015104","COUNTRY_CODE":"US","DECAY_DATE":null,"ARG_OF_PERICENTER":"73.6292","MEAN_MOTION":"15.06414193","EPOCH":"2022-03-05T21:18:21.972384","TLE_LINE2":"2 45103  53.0507 342.4396 0001541  73.6292 286.4866 15.06414193116244","RA_OF_ASC_NODE":"342.4396","EPHEMERIS_TYPE":"0","MEAN_ANOMALY":"286.4866","INCLINATION":"53.0507","REF_FRAME":"TEME","FILE":"3346512","LAUNCH_DATE":"2020-01-29","NORAD_CAT_ID":"45103","MEAN_MOTION_DDOT":"0.0000000000000","BSTAR":"0.00040925000000","MEAN_ELEMENT_THEORY":"SGP4","REV_AT_EPOCH":"11624","TIME_SYSTEM":"UTC","CENTER_NAME":"EARTH","ECCENTRICITY":"0.00015410","OBJECT_ID":"2020-006BM","ELEMENT_SET_NO":"999","TLE_LINE1":"1 45103U 20006BM  22064.88775431  .00005822  00000-0  40925-3 0  9998","SEMIMAJOR_AXIS":"6925.305","SITE":"AFETR","OBJECT_TYPE":"PAYLOAD","PERIOD":"95.591"}];
